H1 CPF  1  HTS 2022  9 19 12  7621 ajisai           NONE
H2  8606101 1500    16908 2022 09 19  0  0  0 2022 09 24  0  0  0   240 1 1  0 0 0
H5  1.0100 
H9 
10 0 59844    720.00000  0    6829511.822   -1053458.413   -3746446.441
10 0 59844    960.00000  0    7403710.710     -16840.527   -2640263.039
10 0 59844   1200.00000  0    7667383.738    1005896.019   -1409438.968
10 0 59844   1440.00000  0    7606915.169    1977967.586    -112051.918
10 0 59844   1680.00000  0    7222731.357    2865185.073    1190628.715
10 0 59844   1920.00000  0    6529399.490    3637107.350    2437090.661
10 0 59844   2160.00000  0    5555058.633    4268013.264    3568537.513
10 0 59844   2400.00000  0    4340213.983    4737660.624    4531699.191
10 0 59844   2640.00000  0    2935963.200    5031814.446    5281345.893
10 0 59844   2880.00000  0    1401756.322    5142541.714    5782385.993
10 0 59844   3120.00000  0    -197191.763    5068283.201    6011459.516
10 0 59844   3360.00000  0   -1792713.007    4813728.517    5957973.480
10 0 59844   3600.00000  0   -3316606.398    4389517.789    5624552.381
10 0 59844   3840.00000  0   -4703555.205    3811793.371    5026898.944
10 0 59844   4080.00000  0   -5893940.936    3101617.533    4193072.981
10 0 59844   4320.00000  0   -6836441.586    2284262.500    3162204.906
10 0 59844   4560.00000  0   -7490294.950    1388388.671    1982692.050
10 0 59844   4800.00000  0   -7827124.589     445129.683     709951.161
10 0 59844   5040.00000  0   -7832233.171    -512898.285    -596180.099
10 0 59844   5280.00000  0   -7505283.525   -1452636.450   -1874270.173
10 0 59844   5520.00000  0   -6860324.966   -2341638.344   -3064204.692
10 0 59844   5760.00000  0   -5925161.349   -3149104.552   -4110032.657
10 0 59844   6000.00000  0   -4740097.169   -3846860.998   -4962600.450
10 0 59844   6240.00000  0   -3356137.775   -4410253.649   -5581845.984
10 0 59844   6480.00000  0   -1832739.981   -4818939.949   -5938653.182
10 0 59844   6720.00000  0    -235221.653   -5057563.583   -6016193.951
10 0 59844   6960.00000  0    1368058.773   -5116301.686   -5810709.342
10 0 59844   7200.00000  0    2908640.256   -4991273.353   -5331702.515
10 0 59844   7440.00000  0    4320906.359   -4684795.929   -4601534.775
10 0 59844   7680.00000  0    5544928.526   -4205465.461   -3654427.996
10 0 59844   7920.00000  0    6529080.687   -3568042.212   -2534901.753
10 0 59844   8160.00000  0    7232305.673   -2793125.261   -1295702.102
10 0 59844   8400.00000  0    7625916.396   -1906602.283       4692.226
10 0 59844   8640.00000  0    7694829.166    -938878.791    1304867.049
10 0 59844   8880.00000  0    7438157.432      76095.012    2543429.371
10 0 59844   9120.00000  0    6869131.036    1101965.425    3661961.942
10 0 59844   9360.00000  0    6014355.314    2101236.414    4607812.602
10 0 59844   9600.00000  0    4912470.553    3036599.806    5336574.509
10 0 59844   9840.00000  0    3612301.946    3872285.369    5814141.927
10 0 59844  10080.00000  0    2170607.390    4575385.492    6018259.128
10 0 59844  10320.00000  0     649538.968    5117113.430    5939504.827
10 0 59844  10560.00000  0    -886063.613    5473959.258    5581689.040
10 0 59844  10800.00000  0   -2371442.567    5628708.469    4961658.223
10 0 59844  11040.00000  0   -3744650.895    5571285.895    4108518.318
10 0 59844  11280.00000  0   -4949142.391    5299385.636    3062303.596
10 0 59844  11520.00000  0   -5936124.549    4818839.741    1872134.166
10 0 59844  11760.00000  0   -6666568.580    4143682.847     593931.864
10 0 59844  12000.00000  0   -7112779.552    3295886.852    -712204.980
10 0 59844  12240.00000  0   -7259449.804    2304755.433   -1984841.966
10 0 59844  12480.00000  0   -7104144.782    1205987.625   -3164120.930
10 0 59844  12720.00000  0   -6657203.772      40442.779   -4194592.359
10 0 59844  12960.00000  0   -5941076.772   -1147344.480   -5027824.660
10 0 59844  13200.00000  0   -4989148.127   -2310840.441   -5624663.987
10 0 59844  13440.00000  0   -3844123.092   -3403310.677   -5957044.797
10 0 59844  13680.00000  0   -2556069.416   -4379675.758   -6009282.492
10 0 59844  13920.00000  0   -1180205.476   -5198363.005   -5778802.960
10 0 59844  14160.00000  0     225475.517   -5823089.882   -5276282.888
10 0 59844  14400.00000  0    1602655.572   -6224510.454   -4525190.774
10 0 59844  14640.00000  0    2895125.075   -6381652.391   -3560737.924
10 0 59844  14880.00000  0    4051106.240   -6283068.170   -2428270.208
10 0 59844  15120.00000  0    5025372.089   -5927624.141   -1181156.407
10 0 59844  15360.00000  0    5781058.800   -5324857.470     121741.821
10 0 59844  15600.00000  0    6291076.621   -4494859.268    1418890.448
10 0 59844  15840.00000  0    6539055.116   -3467671.961    2649044.703
10 0 59844  16080.00000  0    6519783.257   -2282216.196    3754192.860
10 0 59844  16320.00000  0    6239136.347    -984794.970    4682323.466
10 0 59844  16560.00000  0    5713515.598     372750.416    5389872.894
10 0 59844  16800.00000  0    4968856.876    1735142.466    5843739.021
10 0 59844  17040.00000  0    4039283.693    3045933.794    6022779.855
10 0 59844  17280.00000  0    2965487.213    4249847.068    5918748.277
10 0 59844  17520.00000  0    1792914.078    5295102.742    5536637.459
10 0 59844  17760.00000  0     569838.823    6135650.154    4894431.905
10 0 59844  18000.00000  0    -654608.208    6733217.384    4022278.481
10 0 59844  18240.00000  0   -1832390.622    7059096.309    2961105.915
10 0 59844  18480.00000  0   -2918425.755    7095575.293    1760737.711
10 0 59844  18720.00000  0   -3872284.634    6836933.678     477575.149
10 0 59844  18960.00000  0   -4659668.055    6289934.226    -828047.895
10 0 59844  19200.00000  0   -5253598.232    5473762.240   -2094719.708
10 0 59844  19440.00000  0   -5635268.507    4419392.808   -3262864.595
10 0 59844  19680.00000  0   -5794525.743    3168416.615   -4277560.309
10 0 59844  19920.00000  0   -5729983.836    1771379.354   -5091119.128
10 0 59844  20160.00000  0   -5448786.231     285713.834   -5665310.296
10 0 59844  20400.00000  0   -4966052.072   -1226640.153   -5973128.597
10 0 59844  20640.00000  0   -4304051.398   -2701829.222   -6000039.802
10 0 59844  20880.00000  0   -3491160.072   -4076788.607   -5744656.811
10 0 59844  21120.00000  0   -2560644.726   -5291954.699   -5218826.047
10 0 59844  21360.00000  0   -1549319.850   -6293886.064   -4447115.438
10 0 59844  21600.00000  0    -496119.882   -7037683.491   -3465713.790
10 0 59844  21840.00000  0     559368.581   -7489095.603   -2320774.094
10 0 59844  22080.00000  0    1578365.669   -7626197.169   -1066259.782
10 0 59844  22320.00000  0    2524293.240   -7440535.314     238613.493
10 0 59844  22560.00000  0    3364052.709   -6937666.592    1532215.593
10 0 59844  22800.00000  0    4069134.482   -6137032.951    2753473.773
10 0 59844  23040.00000  0    4616503.727   -5071173.172    3844808.750
10 0 59844  23280.00000  0    4989237.891   -3784328.871    4754873.046
10 0 59844  23520.00000  0    5176914.502   -2330524.760    5440961.979
10 0 59844  23760.00000  0    5175754.465    -771220.422    5870986.386
10 0 59844  24000.00000  0    4988536.778     827349.471    6024924.206
10 0 59844  24240.00000  0    4624310.724    2397021.606    5895702.029
10 0 59844  24480.00000  0    4097937.344    3870621.005    5489487.848
10 0 59844  24720.00000  0    3429485.729    5184841.688    4825391.973
10 0 59844  24960.00000  0    2643502.683    6282983.881    3934587.808
10 0 59844  25200.00000  0    1768173.390    7117437.842    2858882.861
10 0 59844  25440.00000  0     834389.882    7651807.167    1648789.438
10 0 59844  25680.00000  0    -125254.909    7862561.254     361169.559
10 0 59844  25920.00000  0   -1077517.437    7740124.843    -943435.555
10 0 59844  26160.00000  0   -1989567.343    7289347.376   -2203665.169
10 0 59844  26400.00000  0   -2830034.652    6529313.607   -3360249.650
10 0 59844  26640.00000  0   -3570000.828    5492498.026   -4358814.256
10 0 59844  26880.00000  0   -4183900.720    4223319.630   -5152432.744
10 0 59844  27120.00000  0   -4650314.040    2776178.432   -5703812.150
10 0 59844  27360.00000  0   -4952632.951    1213076.259   -5987016.489
10 0 59844  27600.00000  0   -5079597.474    -399070.879   -5988663.347
10 0 59844  27840.00000  0   -5025690.719   -1991314.971   -5708549.481
10 0 59844  28080.00000  0   -4791388.307   -3495639.941   -5159683.166
10 0 59844  28320.00000  0   -4383252.406   -4847896.343   -4367718.481
10 0 59844  28560.00000  0   -3813852.055   -5990592.290   -3369803.087
10 0 59844  28800.00000  0   -3101493.423   -6875417.926   -2212874.259
10 0 59844  29040.00000  0   -2269748.820   -7465382.235    -951466.479
10 0 59844  29280.00000  0   -1346780.599   -7736447.357     354876.944
10 0 59844  29520.00000  0    -364470.594   -7678560.836    1644460.332
10 0 59844  29760.00000  0     642615.920   -7296027.606    2856405.591
10 0 59844  30000.00000  0    1638396.126   -6607205.629    3933578.467
10 0 59844  30240.00000  0    2586519.710   -5643545.184    4825310.221
10 0 59844  30480.00000  0    3451648.277   -4448046.099    5489770.411
10 0 59844  30720.00000  0    4200718.568   -3073239.389    5895889.920
10 0 59844  30960.00000  0    4804157.066   -1578804.562    6024764.123
10 0 59844  31200.00000  0    5237014.710     -28931.289    5870488.761
10 0 59844  31440.00000  0    5479983.279    1510461.977    5440400.701
10 0 59844  31680.00000  0    5520259.817    2974536.311    4754725.098
10 0 59844  31920.00000  0    5352229.193    4302266.313    3845646.449
10 0 59844  32160.00000  0    4977924.882    5438998.628    2755832.328
10 0 59844  32400.00000  0    4407227.645    6338731.640    1536463.088
10 0 59844  32640.00000  0    3657767.968    6966013.123     244844.398
10 0 59844  32880.00000  0    2754512.021    7297361.505   -1058290.131
10 0 59844  33120.00000  0    1729029.056    7322139.657   -2311650.859
99
